OBJECT_NAME,OBJECT_ID,EPOCH,MEAN_MOTION,ECCENTRICITY,INCLINATION,RA_OF_ASC_NODE,ARG_OF_PERICENTER,MEAN_ANOMALY,EPHEMERIS_TYPE,CLASSIFICATION_TYPE,NORAD_CAT_ID,ELEMENT_SET_NO,REV_AT_EPOCH,BSTAR,MEAN_MOTION_DOT,MEAN_MOTION_DDOT
ONEWEB-0534,2023-029B,2026-07-14T17:30:16.216704,13.20773101,.00020186,87.9176,268.9797,102.3486,257.7873,0,U,55797,999,16478,.10029621E-3,.54E-6,0
ONEWEB-0556,2023-029C,2026-07-14T15:50:54.557088,13.20793819,.00012411,87.9181,268.9912,118.8638,241.2620,0,U,55798,999,16477,-.46366673E-2,-.1872E-4,0
ONEWEB-0562,2023-029D,2026-07-14T17:20:35.669184,13.20771969,.00013378,87.9175,268.9608,83.1470,276.9815,0,U,55799,999,16478,.3712739E-5,.14E-6,0
ONEWEB-0563,2023-029E,2026-07-14T17:13:18.725376,13.20770082,.00020773,87.9175,268.9920,105.4756,254.6607,0,U,55800,999,16477,.56556147E-4,.36E-6,0
ONEWEB-0564,2023-029F,2026-07-14T22:30:54.179712,13.20772508,.00017707,87.9177,268.9217,90.7504,269.3832,0,U,55801,999,16481,.15489876E-3,.76E-6,0
ONEWEB-0638,2023-029G,2026-07-14T19:05:28.893984,13.14504184,.00014494,87.8959,284.2487,102.6483,257.4809,0,U,55802,999,16302,-.66444187E-4,-.12E-6,0
ONEWEB-0639,2023-029H,2026-07-14T18:44:25.262880,13.19726342,.00026181,87.9185,299.4812,120.1802,239.9590,0,U,55803,999,16254,.10013162E-3,.53E-6,0
ONEWEB-0640,2023-029J,2026-07-14T19:19:10.945920,13.14502500,.00015788,87.8961,284.2376,117.6166,242.5125,0,U,55804,999,16304,-.41334401E-3,-.14E-5,0
ONEWEB-0641,2023-029K,2026-07-14T20:26:46.675968,13.19726759,.00021492,87.9193,299.4579,104.7073,255.4298,0,U,55805,999,16256,.56058216E-4,.35E-6,0
ONEWEB-0642,2023-029L,2026-07-14T18:30:47.949984,13.19726366,.00026653,87.9187,299.4841,114.4123,245.7289,0,U,55806,999,16254,.10446857E-3,.55E-6,0
ONEWEB-0643,2023-029M,2026-07-14T18:35:48.427584,13.14502309,.00026574,87.8957,284.2310,107.6374,252.5046,0,U,55807,999,16301,.61430609E-3,.241E-5,0
ONEWEB-0644,2023-029N,2026-07-14T20:13:09.255936,13.19725772,.00023025,87.9184,299.4707,107.0490,253.0895,0,U,55808,999,16255,.92490357E-4,.5E-6,0
ONEWEB-0645,2023-029P,2026-07-14T18:55:49.098144,13.19725789,.00020239,87.9184,299.4788,115.3898,244.7444,0,U,55809,999,16254,.15420267E-4,.19E-6,0
ONEWEB-0646,2023-029Q,2026-07-14T19:20:49.410816,13.19726847,.00022586,87.9186,299.4754,105.8251,254.3131,0,U,55810,999,16253,.75562537E-4,.43E-6,0
ONEWEB-0648,2023-029R,2026-07-14T17:50:07.406592,13.14503406,.00023685,87.8967,284.2135,123.0802,237.0556,0,U,55811,999,16301,-.35062467E-3,-.117E-5,0
ONEWEB-0649,2023-029S,2026-07-14T19:57:12.480480,13.19726680,.00020439,87.9184,299.4684,108.7187,251.4168,0,U,55812,999,16257,-.11897397E-3,-.35E-6,0
ONEWEB-0650,2023-029T,2026-07-14T19:50:23.441280,13.19726251,.00024804,87.9183,299.4716,112.3410,247.7986,0,U,55813,999,16254,-.12907812E-3,-.39E-6,0
ONEWEB-0652,2023-029U,2026-07-14T19:12:19.993824,13.14502383,.00020048,87.8970,284.2088,95.4167,264.7192,0,U,55814,999,16299,-.35321633E-3,-.118E-5,0
ONEWEB-0653,2023-029V,2026-07-14T18:49:29.774496,13.14501342,.00019722,87.8972,284.2098,100.5037,259.6315,0,U,55815,999,16302,.2991623E-3,.124E-5,0
ONEWEB-0654,2023-029W,2026-07-14T16:53:02.033664,13.14502214,.00018017,87.8969,284.2224,91.1034,269.0302,0,U,55816,999,16303,.50522996E-3,.2E-5,0
ONEWEB-0656,2023-029X,2026-07-14T16:53:55.455648,13.20769868,.00018958,87.9188,268.9477,87.1557,272.9793,0,U,55817,999,16478,.13512567E-3,.68E-6,0
ONEWEB-0657,2023-029Y,2026-07-14T19:43:36.572448,13.19727113,.0002223,87.9184,299.4714,79.3166,280.8217,0,U,55818,999,16255,-.21468105E-3,-.73E-6,0
ONEWEB-0658,2023-029Z,2026-07-14T19:36:45.667008,13.19726025,.00023558,87.9193,299.4502,108.0811,252.0579,0,U,55819,999,16256,-.12559504E-3,-.37E-6,0
ONEWEB-0660,2023-029AA,2026-07-14T18:10:40.360512,13.14502401,.00019106,87.8974,284.2072,109.4414,250.6922,0,U,55820,999,16302,.14736466E-3,.67E-6,0
ONEWEB-0661,2023-029AB,2026-07-14T19:00:55.256544,13.14502753,.00017712,87.8962,284.2404,107.8138,252.3185,0,U,55821,999,16301,.23595969E-3,.1E-5,0
ONEWEB-0662,2023-029AC,2026-07-14T18:01:33.037248,13.14502055,.00019071,87.8956,284.2548,109.9861,250.1474,0,U,55822,999,16305,-.82416569E-4,-.18E-6,0
ONEWEB-0663,2023-029AD,2026-07-14T17:39:30.007872,13.20871227,.00021866,87.9190,269.0123,110.7939,249.3429,0,U,55823,999,16478,-.13292544E-3,-.41E-6,0
ONEWEB-0664,2023-029AE,2026-07-14T18:23:38.341536,13.20773038,.00015495,87.9175,268.9839,103.5670,256.5637,0,U,55824,999,16478,.46906171E-3,.204E-5,0
ONEWEB-0665,2023-029AF,2026-07-14T18:56:21.387552,13.14501791,.00020031,87.8962,284.2220,110.5090,249.6255,0,U,55825,999,16303,.28744001E-3,.119E-5,0
ONEWEB-0666,2023-029AG,2026-07-14T16:24:49.456800,13.20785609,.00024911,87.9177,268.9906,83.6347,276.5070,0,U,55826,999,16478,-.55884431E-2,-.2259E-4,0
